0 IRIDIUM 33 DEB
1 38224U 97051YY  13281.93130685  .00003456  00000-0  16461-2 0  1070
2 38224 086.4050 162.5499 0129239 180.2687 179.8574 14.14785803206952
0 IRIDIUM 33 DEB
1 38224U 97051YY  13285.39690238  .00003836  00000-0  18299-2 0  1083
2 38224 086.4013 161.1484 0127819 167.4578 193.0365 14.14817422207442
0 IRIDIUM 33 DEB
1 38224U 97051YY  13286.38704652  .00003937  00000-0  18789-2 0  1096
2 38224 086.3994 160.7486 0127348 164.2038 196.3438 14.14827053207582
0 IRIDIUM 33 DEB
1 38224U 97051YY  13287.37718874  .00004014  00000-0  19039-2 0  1105
2 38224 086.4116 160.3506 0132152 161.3097 199.3674 14.14836480207725
0 IRIDIUM 33 DEB
1 38224U 97051YY  13288.93310902  .00004293  00000-0  20442-2 0  1118
2 38224 086.4029 159.7264 0129098 157.0763 203.6991 14.14854139207944
0 IRIDIUM 33 DEB
1 38224U 97051YY  13290.34755427  .00004504  00000-0  21477-2 0  1126
2 38224 086.4012 159.1540 0127772 153.2018 207.6342 14.14870817208143
0 IRIDIUM 33 DEB
1 38224U 97051YY  13291.33765969  .00004575  00000-0  21847-2 0  1138
2 38224 086.4026 158.7534 0126471 150.2166 210.6567 14.14881396208284
0 IRIDIUM 33 DEB
1 38224U 97051YY  13293.38858313  .00004787  00000-0  22763-2 0  1145
2 38224 086.4069 157.9196 0129667 144.1390 216.9433 14.14904490208571
